[{"OBJECT_NAME":"STARLINK-34723","OBJECT_ID":"2025-152A","EPOCH":"2026-03-09T13:25:56.392608","MEAN_MOTION":15.05672971,"ECCENTRICITY":0.00018714,"INCLINATION":97.6019,"RA_OF_ASC_NODE":285.3137,"ARG_OF_PERICENTER":83.883,"MEAN_ANOMALY":276.261,"EPHEMERIS_TYPE":0,"CLASSIFICATION_TYPE":"U","NORAD_CAT_ID":64842,"ELEMENT_SET_NO":999,"REV_AT_EPOCH":3539,"BSTAR":0.0005690792,"MEAN_MOTION_DOT":8.165e-5,"MEAN_MOTION_DDOT":0},{"OBJECT_NAME":"CZ-4B R\/B","OBJECT_ID":"2019-059D","EPOCH":"2026-03-09T22:53:45.354624","MEAN_MOTION":15.13308828,"ECCENTRICITY":0.01361486,"INCLINATION":98.7209,"RA_OF_ASC_NODE":86.9492,"ARG_OF_PERICENTER":209.5346,"MEAN_ANOMALY":149.8142,"EPHEMERIS_TYPE":0,"CLASSIFICATION_TYPE":"U","NORAD_CAT_ID":44531,"ELEMENT_SET_NO":999,"REV_AT_EPOCH":35472,"BSTAR":0.00025424701,"MEAN_MOTION_DOT":5.595e-5,"MEAN_MOTION_DDOT":0}]
